H1 CPF 01  gfz 2022 03 20 13  5792 tandemx   
H2 1003001  6202 36605    2022 03 20 12 59 42 2022 03 25 00 00 42   120 1 1  0 0 0
H9
10 0 59660  23022.000000  0    2665571.559  -1083585.712  -6266176.840
10 0 59660  23142.000000  0    1799939.233  -1056025.064  -6571976.318
10 0 59660  23262.000000  0     903907.382   -994757.067  -6763126.205
10 0 59660  23382.000000  0      -6412.621   -900458.864  -6836338.291
10 0 59660  23502.000000  0    -914693.925   -774658.412  -6790353.577
10 0 59660  23622.000000  0   -1804679.781   -619710.338  -6625961.837
10 0 59660  23742.000000  0   -2660468.287   -438752.960  -6345989.053
10 0 59660  23862.000000  0   -3466789.561   -235648.054  -5955253.101
10 0 59660  23982.000000  0   -4209274.281    -14903.541  -5460491.183
10 0 59660  24102.000000  0   -4874710.978    218419.818  -4870254.400
10 0 59660  24222.000000  0   -5451284.791    458815.599  -4194771.951
10 0 59660  24342.000000  0   -5928796.422    700452.435  -3445785.373
10 0 59660  24462.000000  0   -6298854.110    937305.466  -2636352.658
10 0 59660  24582.000000  0   -6555033.912   1163295.466  -1780625.227
10 0 59660  24702.000000  0   -6693004.225   1372432.438   -893602.036
10 0 59660  24822.000000  0   -6710611.564   1558960.747      9137.333
10 0 59660  24942.000000  0   -6607920.461   1717500.330    911713.418
10 0 59660  25062.000000  0   -6387210.168   1843182.503   1798233.419
10 0 59660  25182.000000  0   -6052927.144   1931776.163   2653080.218
10 0 59660  25302.000000  0   -5611593.346   1979800.470   3461196.597
10 0 59660  25422.000000  0   -5071672.360   1984620.612   4208357.682
10 0 59660  25542.000000  0   -4443398.122   1944525.058   4881424.806
10 0 59660  25662.000000  0   -3738571.847   1858782.707   5468576.638
10 0 59660  25782.000000  0   -2970332.510   1727678.925   5959514.991
10 0 59660  25902.000000  0   -2152904.013   1552529.939   6345642.668
10 0 59660  26022.000000  0   -1301324.601   1335674.203   6620208.226
10 0 59660  26142.000000  0    -431166.219   1080441.796   6778416.768
10 0 59660  26262.000000  0     441750.637    791103.045   6817507.584
10 0 59660  26382.000000  0    1301643.632    472796.618   6736799.157
10 0 59660  26502.000000  0    2133052.681    131438.709   6537700.236
10 0 59660  26622.000000  0    2921116.995   -226386.017   6223687.690
10 0 59660  26742.000000  0    3651842.132   -593550.237   5800250.431
10 0 59660  26862.000000  0    4312351.722   -962523.970   5274798.443
10 0 59660  26982.000000  0    4891119.178  -1325527.362   4656539.170
10 0 59660  27102.000000  0    5378176.190  -1674692.390   3956321.798
10 0 59660  27222.000000  0    5765293.486  -2002230.669   3186450.332
10 0 59660  27342.000000  0    6046128.959  -2300604.617   2360467.989
10 0 59660  27462.000000  0    6216338.955  -2562696.750   1492916.864
10 0 59660  27582.000000  0    6273651.240  -2781973.006    599077.468
10 0 59660  27702.000000  0    6217896.133  -2952636.675   -305308.284
10 0 59660  27822.000000  0    6050995.226  -3069768.175  -1204322.946
10 0 59660  27942.000000  0    5776906.773  -3129447.063  -2082163.587
10 0 59660  28062.000000  0    5401529.952  -3128852.937  -2923426.395
10 0 59660  28182.000000  0    4932572.638  -3066343.385  -3713381.722
10 0 59660  28302.000000  0    4379385.104  -2941507.764  -4438233.194
10 0 59660  28422.000000  0    3752764.529  -2755195.622  -5085357.038
10 0 59660  28542.000000  0    3064734.744  -2509518.419  -5643515.408
10 0 59660  28662.000000  0    2328309.824  -2207826.562  -6103041.010
10 0 59660  28782.000000  0    1557246.010  -1854663.255  -6455994.671
10 0 59660  28902.000000  0     765783.518  -1455693.637  -6696292.636
10 0 59660  29022.000000  0     -31614.433  -1017612.575  -6819800.267
10 0 59660  29142.000000  0    -820520.959   -548033.212  -6824394.824
10 0 59660  29262.000000  0   -1586800.085    -55357.507  -6709997.773
10 0 59660  29382.000000  0   -2316854.374    451370.590  -6478575.386
10 0 59660  29502.000000  0   -2997860.343    962626.412  -6134108.141
10 0 59660  29622.000000  0   -3617989.684   1468578.695  -5682530.331
10 0 59660  29742.000000  0   -4166615.143   1959274.058  -5131639.218
10 0 59660  29862.000000  0   -4634496.795   2424830.159  -4490972.199
10 0 59660  29982.000000  0   -5013943.935   2855633.608  -3771651.849
10 0 59660  30102.000000  0   -5298949.305   3242537.185  -2986202.317
10 0 59660  30222.000000  0   -5485294.257   3577054.457  -2148338.621
10 0 59660  30342.000000  0   -5570619.779   3851546.634  -1272729.994
10 0 59660  30462.000000  0   -5554461.970   4059395.774   -374741.745
10 0 59660  30582.000000  0   -5438249.747   4195160.666    529838.994
10 0 59660  30702.000000  0   -5225264.204   4254710.944   1425089.519
10 0 59660  30822.000000  0   -4920558.696   4235333.957   2295241.377
10 0 59660  30942.000000  0   -4530843.504   4135813.162   3124966.415
10 0 59660  31062.000000  0   -4064338.156   3956476.973   3899654.409
10 0 59660  31182.000000  0   -3530594.788   3699214.496   4605675.630
10 0 59660  31302.000000  0   -2940297.997   3367459.757   5230622.975
10 0 59660  31422.000000  0   -2305045.110   2966144.446   5763529.529
10 0 59660  31542.000000  0   -1637113.063   2501621.031   6195057.852
10 0 59660  31662.000000  0    -949216.306   1981557.591   6517658.118
10 0 59660  31782.000000  0    -254263.017   1414807.345   6725692.244
10 0 59660  31902.000000  0     434886.662    811255.839   6815527.367
10 0 59660  32022.000000  0    1105658.398    181647.691   6785594.919
10 0 59660  32142.000000  0    1745991.922   -462603.965   6636416.338
10 0 59660  32262.000000  0    2344557.210  -1109623.910   6370595.276
10 0 59660  32382.000000  0    2890955.197  -1747292.918   5992775.472
10 0 59660  32502.000000  0    3375901.087  -2363474.895   5509565.208
10 0 59660  32622.000000  0    3791385.603  -2946248.902   4929427.108
10 0 59660  32742.000000  0    4130811.851  -3484142.064   4262535.875
10 0 59660  32862.000000  0    4389105.027  -3966359.270   3520604.119
10 0 59660  32982.000000  0    4562792.608  -4383004.463   2716678.816
10 0 59660  33102.000000  0    4650053.205  -4725288.095   1864910.681
10 0 59660  33222.000000  0    4650731.424  -4985715.003    980300.790
10 0 59660  33342.000000  0    4566318.312  -5158248.937     78429.940
10 0 59660  33462.000000  0    4399898.059  -5238448.439   -824823.387
10 0 59660  33582.000000  0    4156063.790  -5223571.787  -1713571.487
10 0 59660  33702.000000  0    3840801.545  -5112646.712  -2572205.532
10 0 59660  33822.000000  0    3461347.804  -4906504.175  -3385675.857
10 0 59660  33942.000000  0    3026023.775  -4607775.354  -4139758.935
10 0 59660  34062.000000  0    2544051.340  -4220853.872  -4821305.876
10 0 59660  34182.000000  0    2025355.088  -3751822.485  -5418467.487
10 0 59660  34302.000000  0    1480356.724  -3208348.594  -5920890.811
10 0 59660  34422.000000  0     919766.125  -2599553.104  -6319888.193
10 0 59660  34542.000000  0     354371.922  -1935853.043  -6608577.193
10 0 59660  34662.000000  0    -205163.495  -1228780.652  -6781988.408
10 0 59660  34782.000000  0    -748500.130   -490783.520  -6837141.337
10 0 59660  34902.000000  0   -1265806.170    264990.792  -6773089.460
10 0 59660  35022.000000  0   -1747931.836   1024922.948  -6590934.004
10 0 59660  35142.000000  0   -2186567.269   1775160.968  -6293807.033
10 0 59660  35262.000000  0   -2574383.040   2501866.233  -5886823.752
10 0 59660  35382.000000  0   -2905152.694   3191464.610  -5377004.632
10 0 59660  35502.000000  0   -3173854.335   3830898.791  -4773166.076
10 0 59660  35622.000000  0   -3376750.622   4407877.699  -4085779.339
10 0 59660  35742.000000  0   -3511443.323   4911117.005  -3326797.718
10 0 59660  35862.000000  0   -3576900.927   5330564.820  -2509456.283
10 0 59660  35982.000000  0   -3573460.830   5657609.933  -1648047.047
10 0 59660  36102.000000  0   -3502803.874   5885267.516   -757670.076
10 0 59660  36222.000000  0   -3367900.275   6008334.518    146034.871
10 0 59660  36342.000000  0   -3172930.822   6023511.342   1047168.385
10 0 59660  36462.000000  0   -2923181.903   5929487.075   1929861.471
10 0 59660  36582.000000  0   -2624915.705   5726982.604   2778565.694
10 0 59660  36702.000000  0   -2285221.795   5418751.165   3578335.090
10 0 59660  36822.000000  0   -1911854.410   5009538.814   4315094.735
10 0 59660  36942.000000  0   -1513059.008   4506005.552   4975891.650
10 0 59660  37062.000000  0   -1097391.513   3916609.424   5549123.469
10 0 59660  37182.000000  0    -673535.600   3251455.586   6024739.469
10 0 59660  37302.000000  0    -250122.666   2522114.940   6394412.051
10 0 59660  37422.000000  0     164442.495   1741417.115   6651676.120
10 0 59660  37542.000000  0     562147.288    923221.215   6792036.966
10 0 59660  37662.000000  0     935525.126     82167.665   6813043.082
10 0 59660  37782.000000  0    1277794.473   -766582.668   6714326.433
10 0 59660  37902.000000  0    1582981.586  -1607621.522   6497609.419
10 0 59660  38022.000000  0    1846025.101  -2425572.354   6166676.927
10 0 59660  38142.000000  0    2062860.686  -3205372.503   5727314.886
10 0 59660  38262.000000  0    2230484.550  -3932553.253   5187214.225
10 0 59660  38382.000000  0    2346994.193  -4593511.847   4555841.350
10 0 59660  38502.000000  0    2411606.967  -5175771.678   3844278.007
10 0 59660  38622.000000  0    2424655.770  -5668226.203   3065029.712
10 0 59660  38742.000000  0    2387559.296  -6061359.750   2231806.263
10 0 59660  38862.000000  0    2302769.494  -6347438.896   1359277.510
10 0 59660  38982.000000  0    2173697.650  -6520669.889    462810.891
10 0 59660  39102.000000  0    2004619.849  -6577321.194   -441805.474
10 0 59660  39222.000000  0    1800564.577  -6515805.014  -1338651.078
10 0 59660  39342.000000  0    1567182.715  -6336712.658  -2211963.146
10 0 59660  39462.000000  0    1310606.226  -6042807.446  -3046420.754
99
